{"type": "FeatureCollection", "features": [ {"type": "Feature", "properties": {"norad_id": 34833, "name": "IRIDIUM 33 DEB", "group": "iridium-33-debris", "lat": 6.612656567349736, "lon": 53.816931770160096, "alt_km": 725.137754735717, "timestamp": "2025-12-07T03:52:32.886896+00:00", "meta": {"OBJECT_NAME": "IRIDIUM 33 DEB", "OBJECT_ID": "1997-051MH", "EPOCH": "2025-12-06T11:24:24.044256", "MEAN_MOTION": 14.52319151, "ECCENTRICITY": 0.00217012, "INCLINATION": 86.3936, "RA_OF_ASC_NODE": 53.6936, "ARG_OF_PERICENTER": 117.7437, "MEAN_ANOMALY": 263.768, "EPHEMERIS_TYPE": 0, "CLASSIFICATION_TYPE": "U", "NORAD_CAT_ID": 34833, "ELEMENT_SET_NO": 999, "REV_AT_EPOCH": 87624, "BSTAR": 0.001502325, "MEAN_MOTION_DOT": 6.148e-05, "MEAN_MOTION_DDOT": 0}, "tle": {"line1": "1 34833U 97051MH  25340.47527829  .00006148  00000+0  15023-2 0  9992", "line2": "2 34833  86.3936  53.6936 0021701 117.7437 263.7680 14.52319151876242"}}, "geometry": {"type": "Point", "coordinates": [53.816931770160096, 6.612656567349736]}}, {"type": "Feature", "properties": {"norad_id": 34870, "name": "IRIDIUM 33 DEB", "group": "iridium-33-debris", "lat": -38.04380653625733, "lon": 139.53292196211268, "alt_km": 637.3120090592065, "timestamp": "2025-12-07T03:52:32.886907+00:00", "meta": {"OBJECT_NAME": "IRIDIUM 33 DEB", "OBJECT_ID": "1997-051MQ", "EPOCH": "2025-12-06T06:01:40.638720", "MEAN_MOTION": 14.7623031, "ECCENTRICITY": 0.00152329, "INCLINATION": 86.3104, "RA_OF_ASC_NODE": 317.0553, "ARG_OF_PERICENTER": 206.8225, "MEAN_ANOMALY": 216.4192, "EPHEMERIS_TYPE": 0, "CLASSIFICATION_TYPE": "U", "NORAD_CAT_ID": 34870, "ELEMENT_SET_NO": 999, "REV_AT_EPOCH": 88815, "BSTAR": 0.002728719, "MEAN_MOTION_DOT": 0.00018975, "MEAN_MOTION_DDOT": 0}, "tle": {"line1": "1 34870U 97051MQ  25340.25116480  .00018975  00000+0  27287-2 0  9992", "line2": "2 34870  86.3104 317.0553 0015232 206.8225 216.4192 14.76230310888150"}}, "geometry": {"type": "Point", "coordinates": [139.53292196211268, -38.04380653625733]}}, {"type": "Feature", "properties": {"norad_id": 34896, "name": "IRIDIUM 33 DEB", "group": "iridium-33-debris", "lat": -81.1449104274055, "lon": 173.5316847847581, "alt_km": 665.6286164539906, "timestamp": "2025-12-07T03:52:32.886917+00:00", "meta": {"OBJECT_NAME": "IRIDIUM 33 DEB", "OBJECT_ID": "1997-051MY", "EPOCH": "2025-12-05T17:05:39.506784", "MEAN_MOTION": 14.66165825, "ECCENTRICITY": 0.00238087, "INCLINATION": 86.3279, "RA_OF_ASC_NODE": 329.8372, "ARG_OF_PERICENTER": 240.6117, "MEAN_ANOMALY": 296.7708, "EPHEMERIS_TYPE": 0, "CLASSIFICATION_TYPE": "U", "NORAD_CAT_ID": 34896, "ELEMENT_SET_NO": 999, "REV_AT_EPOCH": 87516, "BSTAR": 0.001793551, "MEAN_MOTION_DOT": 9.929e-05, "MEAN_MOTION_DDOT": 0}, "tle": {"line1": "1 34896U 97051MY  25339.71226281  .00009929  00000+0  17936-2 0  9999", "line2": "2 34896  86.3279 329.8372 0023808 240.6117 296.7708 14.66165825875163"}}, "geometry": {"type": "Point", "coordinates": [173.5316847847581, -81.1449104274055]}}, {"type": "Feature", "properties": {"norad_id": 34926, "name": "IRIDIUM 33 DEB", "group": "iridium-33-debris", "lat": -48.41951980842548, "lon": -164.76647211235328, "alt_km": 712.7475463039145, "timestamp": "2025-12-07T03:52:32.886928+00:00", "meta": {"OBJECT_NAME": "IRIDIUM 33 DEB", "OBJECT_ID": "1997-051NF", "EPOCH": "2025-12-06T08:44:20.931360", "MEAN_MOTION": 14.53974981, "ECCENTRICITY": 0.00764834, "INCLINATION": 86.1314, "RA_OF_ASC_NODE": 11.2289, "ARG_OF_PERICENTER": 314.5248, "MEAN_ANOMALY": 63.7785, "EPHEMERIS_TYPE": 0, "CLASSIFICATION_TYPE": "U", "NORAD_CAT_ID": 34926, "ELEMENT_SET_NO": 999, "REV_AT_EPOCH": 86364, "BSTAR": 0.0093250952, "MEAN_MOTION_DOT": 0.00041051, "MEAN_MOTION_DDOT": 0}, "tle": {"line1": "1 34926U 97051NF  25340.36413115  .00041051  00000+0  93251-2 0  9996", "line2": "2 34926  86.1314  11.2289 0076483 314.5248  63.7785 14.53974981863641"}}, "geometry": {"type": "Point", "coordinates": [-164.76647211235328, -48.41951980842548]}}, {"type": "Feature", "properties": {"norad_id": 34985, "name": "IRIDIUM 33 DEB", "group": "iridium-33-debris", "lat": -59.32955287819226, "lon": -114.59646173580735, "alt_km": 744.8347718555724, "timestamp": "2025-12-07T03:52:32.886939+00:00", "meta": {"OBJECT_NAME": "IRIDIUM 33 DEB", "OBJECT_ID": "1997-051NR", "EPOCH": "2025-12-06T11:52:01.102944", "MEAN_MOTION": 14.41968492, "ECCENTRICITY": 0.00201435, "INCLINATION": 86.3705, "RA_OF_ASC_NODE": 59.544, "ARG_OF_PERICENTER": 241.43, "MEAN_ANOMALY": 137.5894, "EPHEMERIS_TYPE": 0, "CLASSIFICATION_TYPE": "U", "NORAD_CAT_ID": 34985, "ELEMENT_SET_NO": 999, "REV_AT_EPOCH": 87085, "BSTAR": 0.0014027, "MEAN_MOTION_DOT": 4.627e-05, "MEAN_MOTION_DDOT": 0}, "tle": {"line1": "1 34985U 97051NR  25340.49445721  .00004627  00000+0  14027-2 0  9995", "line2": "2 34985  86.3705  59.5440 0020143 241.4300 137.5894 14.41968492870854"}}, "geometry": {"type": "Point", "coordinates": [-114.59646173580735, -59.32955287819226]}}, {"type": "Feature", "properties": {"norad_id": 35051, "name": "IRIDIUM 33 DEB", "group": "iridium-33-debris", "lat": 59.814153688687824, "lon": 17.63830182025957, "alt_km": 722.5735200428717, "timestamp": "2025-12-07T03:52:32.886949+00:00", "meta": {"OBJECT_NAME": "IRIDIUM 33 DEB", "OBJECT_ID": "1997-051NX", "EPOCH": "2025-12-05T08:27:53.565120", "MEAN_MOTION": 14.47546386, "ECCENTRICITY": 0.00106363, "INCLINATION": 86.3242, "RA_OF_ASC_NODE": 12.0813, "ARG_OF_PERICENTER": 111.2483, "MEAN_ANOMALY": 248.9857, "EPHEMERIS_TYPE": 0, "CLASSIFICATION_TYPE": "U", "NORAD_CAT_ID": 35051, "ELEMENT_SET_NO": 999, "REV_AT_EPOCH": 86889, "BSTAR": 0.0012192117, "MEAN_MOTION_DOT": 4.506e-05, "MEAN_MOTION_DDOT": 0}, "tle": {"line1": "1 35051U 97051NX  25339.35270330  .00004506  00000+0  12192-2 0  9992", "line2": "2 35051  86.3242  12.0813 0010636 111.2483 248.9857 14.47546386868892"}}, "geometry": {"type": "Point", "coordinates": [17.63830182025957, 59.814153688687824]}}, {"type": "Feature", "properties": {"norad_id": 35052, "name": "IRIDIUM 33 DEB", "group": "iridium-33-debris", "lat": 31.29362493380203, "lon": 25.102734455414794, "alt_km": 758.3006763599869, "timestamp": "2025-12-07T03:52:32.886960+00:00", "meta": {"OBJECT_NAME": "IRIDIUM 33 DEB", "OBJECT_ID": "1997-051NY", "EPOCH": "2025-12-06T09:21:58.200480", "MEAN_MOTION": 14.38481516, "ECCENTRICITY": 0.00136537, "INCLINATION": 86.3315, "RA_OF_ASC_NODE": 23.1982, "ARG_OF_PERICENTER": 102.6979, "MEAN_ANOMALY": 257.5746, "EPHEMERIS_TYPE": 0, "CLASSIFICATION_TYPE": "U", "NORAD_CAT_ID": 35052, "ELEMENT_SET_NO": 999, "REV_AT_EPOCH": 87184, "BSTAR": 0.00036676688, "MEAN_MOTION_DOT": 1.14e-05, "MEAN_MOTION_DDOT": 0}, "tle": {"line1": "1 35052U 97051NY  25340.39025695  .00001140  00000+0  36677-3 0  9997", "line2": "2 35052  86.3315  23.1982 0013653 102.6979 257.5746 14.38481516871845"}}, "geometry": {"type": "Point", "coordinates": [25.102734455414794, 31.29362493380203]}}, {"type": "Feature", "properties": {"norad_id": 35080, "name": "IRIDIUM 33 DEB", "group": "iridium-33-debris", "lat": -16.073571776119884, "lon": 53.94471525511085, "alt_km": 654.1675828647703, "timestamp": "2025-12-07T03:52:32.886970+00:00", "meta": {"OBJECT_NAME": "IRIDIUM 33 DEB", "OBJECT_ID": "1997-051PF", "EPOCH": "2025-12-06T11:46:33.494016", "MEAN_MOTION": 14.84861675, "ECCENTRICITY": 0.00624075, "INCLINATION": 86.2064, "RA_OF_ASC_NODE": 55.3603, "ARG_OF_PERICENTER": 201.0801, "MEAN_ANOMALY": 158.785, "EPHEMERIS_TYPE": 0, "CLASSIFICATION_TYPE": "U", "NORAD_CAT_ID": 35080, "ELEMENT_SET_NO": 999, "REV_AT_EPOCH": 69595, "BSTAR": 0.014220361, "MEAN_MOTION_DOT": 0.00127174, "MEAN_MOTION_DDOT": 0}, "tle": {"line1": "1 35080U 97051PF  25340.49066544  .00127174  00000+0  14220-1 0  9991", "line2": "2 35080  86.2064  55.3603 0062407 201.0801 158.7850 14.84861675695955"}}, "geometry": {"type": "Point", "coordinates": [53.94471525511085, -16.073571776119884]}}, {"type": "Feature", "properties": {"norad_id": 35297, "name": "IRIDIUM 33 DEB", "group": "iridium-33-debris", "lat": 14.63827746701364, "lon": -115.80503337478626, "alt_km": 730.5976554702202, "timestamp": "2025-12-07T03:52:32.886981+00:00", "meta": {"OBJECT_NAME": "IRIDIUM 33 DEB", "OBJECT_ID": "1997-051PM", "EPOCH": "2025-12-06T00:31:29.302752", "MEAN_MOTION": 14.45108459, "ECCENTRICITY": 0.00170329, "INCLINATION": 86.3867, "RA_OF_ASC_NODE": 65.6268, "ARG_OF_PERICENTER": 161.2449, "MEAN_ANOMALY": 198.9384, "EPHEMERIS_TYPE": 0, "CLASSIFICATION_TYPE": "U", "NORAD_CAT_ID": 35297, "ELEMENT_SET_NO": 999, "REV_AT_EPOCH": 70329, "BSTAR": 0.0012426888, "MEAN_MOTION_DOT": 4.371e-05, "MEAN_MOTION_DDOT": 0}, "tle": {"line1": "1 35297U 97051PM  25340.02186693  .00004371  00000+0  12427-2 0  9999", "line2": "2 35297  86.3867  65.6268 0017032 161.2449 198.9384 14.45108459703293"}}, "geometry": {"type": "Point", "coordinates": [-115.80503337478626, 14.63827746701364]}}, {"type": "Feature", "properties": {"norad_id": 35299, "name": "IRIDIUM 33 DEB", "group": "iridium-33-debris", "lat": -4.914292327449223, "lon": -144.06548922622474, "alt_km": 741.3652532299602, "timestamp": "2025-12-07T03:52:32.886991+00:00", "meta": {"OBJECT_NAME": "IRIDIUM 33 DEB", "OBJECT_ID": "1997-051PP", "EPOCH": "2025-12-06T14:24:15.119136", "MEAN_MOTION": 14.40815495, "ECCENTRICITY": 0.0058804, "INCLINATION": 86.2886, "RA_OF_ASC_NODE": 35.859, "ARG_OF_PERICENTER": 121.9037, "MEAN_ANOMALY": 32.622, "EPHEMERIS_TYPE": 0, "CLASSIFICATION_TYPE": "U", "NORAD_CAT_ID": 35299, "ELEMENT_SET_NO": 999, "REV_AT_EPOCH": 86242, "BSTAR": 0.0014232955, "MEAN_MOTION_DOT": 4.671e-05, "MEAN_MOTION_DDOT": 0}, "tle": {"line1": "1 35299U 97051PP  25340.60017499  .00004671  00000+0  14233-2 0  9992", "line2": "2 35299  86.2886  35.8590 0058804 121.9037  32.6220 14.40815495862424"}}, "geometry": {"type": "Point", "coordinates": [-144.06548922622474, -4.914292327449223]}}]}